{
    "links": {
        "self": "http://www.neowsapp.com/rest/v1/neo/3654380?api_key=iIulBulltgU6a56xZRHN4H3l9WmuAYTsLGpBGhQ2"
    },
    "id": "3654380",
    "neo_reference_id": "3654380",
    "name": "(2013 XW8)",
    "designation": "2013 XW8",
    "nasa_jpl_url": "http://ssd.jpl.nasa.gov/sbdb.cgi?sstr=3654380",
    "absolute_magnitude_h": 25.2,
    "estimated_diameter": {
        "kilometers": {
            "estimated_diameter_min": 0.0242412481,
            "estimated_diameter_max": 0.0542050786
        },
        "meters": {
            "estimated_diameter_min": 24.2412481101,
            "estimated_diameter_max": 54.2050786336
        },
        "miles": {
            "estimated_diameter_min": 0.0150628086,
            "estimated_diameter_max": 0.0336814639
        },
        "feet": {
            "estimated_diameter_min": 79.5316564495,
            "estimated_diameter_max": 177.8381901842
        }
    },
    "is_potentially_hazardous_asteroid": false,
    "close_approach_data": [
        {
            "close_approach_date": "2013-12-10",
            "close_approach_date_full": "2013-Dec-10 19:19",
            "epoch_date_close_approach": 1386703140000,
            "relative_velocity": {
                "kilometers_per_second": "6.866109887",
                "kilometers_per_hour": "24717.9955931473",
                "miles_per_hour": "15358.8012061976"
            },
            "miss_distance": {
                "astronomical": "0.0474938641",
                "lunar": "18.4751131349",
                "kilometers": "7104980.907429467",
                "miles": "4414830.4174699646"
            },
            "orbiting_body": "Earth"
        },
        {
            "close_approach_date": "2046-03-29",
            "close_approach_date_full": "2046-Mar-29 04:41",
            "epoch_date_close_approach": 2405911260000,
            "relative_velocity": {
                "kilometers_per_second": "12.6880517395",
                "kilometers_per_hour": "45676.986262362",
                "miles_per_hour": "28381.9029361882"
            },
            "miss_distance": {
                "astronomical": "0.0725413726",
                "lunar": "28.2185939414",
                "kilometers": "10852034.827836362",
                "miles": "6743141.7583793156"
            },
            "orbiting_body": "Mars"
        },
        {
            "close_approach_date": "2115-01-14",
            "close_approach_date_full": "2115-Jan-14 07:42",
            "epoch_date_close_approach": 4576894920000,
            "relative_velocity": {
                "kilometers_per_second": "6.3608085776",
                "kilometers_per_hour": "22898.910879467",
                "miles_per_hour": "14228.4927072999"
            },
            "miss_distance": {
                "astronomical": "0.0319415499",
                "lunar": "12.4252629111",
                "kilometers": "4778387.829538713",
                "miles": "2969152.5158437194"
            },
            "orbiting_body": "Earth"
        }
    ],
    "orbital_data": {
        "orbit_id": "6",
        "orbit_determination_date": "2017-04-06 08:43:23",
        "first_observation_date": "2013-12-06",
        "last_observation_date": "2013-12-14",
        "data_arc_in_days": 8,
        "observations_used": 22,
        "orbit_uncertainty": "8",
        "minimum_orbit_intersection": ".0212965",
        "jupiter_tisserand_invariant": "3.770",
        "epoch_osculation": "2456633.5",
        "eccentricity": ".478480949579982",
        "semi_major_axis": "1.925785999157676",
        "inclination": "1.528603194165643",
        "ascending_node_longitude": "285.3665699470623",
        "orbital_period": "976.1363021668012",
        "perihelion_distance": "1.004334085592877",
        "perihelion_argument": "172.5673339316463",
        "aphelion_distance": "2.847237912722476",
        "perihelion_time": "2456652.157329343790",
        "mean_anomaly": "353.1191591288481",
        "mean_motion": ".3688009545397314",
        "equinox": "J2000",
        "orbit_class": {
            "orbit_class_type": "APO",
            "orbit_class_description": "Near-Earth asteroid orbits which cross the Earth’s orbit similar to that of 1862 Apollo",
            "orbit_class_range": "a (semi-major axis) > 1.0 AU; q (perihelion) < 1.017 AU"
        }
    },
    "is_sentry_object": false
}